<?xml version="1.0" encoding="UTF-8"?>
<gpx version="1.1" creator="GeoSim" xmlns="http://www.topografix.com/GPX/1/1">
  <trk>
    <name>信義區步行短線</name>
    <trkseg>
      <trkpt lat="25.033964" lon="121.564468"></trkpt>
      <trkpt lat="25.034185" lon="121.565063"></trkpt>
      <trkpt lat="25.034364" lon="121.565740"></trkpt>
      <trkpt lat="25.034478" lon="121.566328"></trkpt>
      <trkpt lat="25.034662" lon="121.566913"></trkpt>
      <trkpt lat="25.034822" lon="121.567449"></trkpt>
      <trkpt lat="25.035010" lon="121.568040"></trkpt>
      <trkpt lat="25.035196" lon="121.568592"></trkpt>
    </trkseg>
  </trk>
</gpx>
